NORAD_CAT_ID,OBJECT_NAME,OBJECT_TYPE,EPOCH,MEAN_MOTION,ECCENTRICITY,INCLINATION,RA_OF_ASC_NODE,ARG_OF_PERICENTER,MEAN_ANOMALY,BSTAR,MEAN_MOTION_DOT,MEAN_MOTION_DDOT,TLE_LINE0,TLE_LINE1,TLE_LINE2,SEMIMAJOR_AXIS,PERIOD,APOGEE,PERIGEE,DECAYED
52990.0,STARLINK-4286,PAYLOAD,2023-08-19 00:34:00,15.08839524,0.0001244,53.2154,335.511,85.7445,274.3689,0.0002335,3.43e-05,0.0,0 STARLINK-4286,1 52990U 22076E   23231.02361838  .00003430  00000-0  23350-3 0  9990,2 52990  53.2154 335.5110 0001244  85.7445 274.3689 15.08839524 62225,6917.882,95.438,540.607,538.886,0.0
52990.0,STARLINK-4286,PAYLOAD,2023-08-20 11:32:29,15.08838527,0.0001477,53.2162,328.9703,86.0908,274.0253,9.2276e-05,1.181e-05,0.0,0 STARLINK-4286,1 52990U 22076E   23232.48090028  .00001181  00000-0  92276-4 0  9996,2 52990  53.2162 328.9703 0001477  86.0908 274.0253 15.08838527 62444,6917.885,95.438,540.772,538.728,0.0
52990.0,STARLINK-4286,PAYLOAD,2023-08-20 16:18:38,15.08847845,0.0001075,53.2168,328.0778,78.4918,281.6195,0.00026121,3.873e-05,0.0,0 STARLINK-4286,1 52990U 22076E   23232.67961648  .00003873  00000-0  26121-3 0  9997,2 52990  53.2168 328.0778 0001075  78.4918 281.6195 15.08847845 62478,6917.856,95.437,540.465,538.978,0.0
52990.0,STARLINK-4286,PAYLOAD,2023-08-21 12:58:39,15.08842754,0.0001311,53.2175,324.2135,89.3301,270.7842,0.00011676,1.571e-05,0.0,0 STARLINK-4286,1 52990U 22076E   23233.54073905  .00001571  00000-0  11676-3 0  9996,2 52990  53.2175 324.2135 0001311  89.3301 270.7842 15.08842754 62608,6917.872,95.437,540.644,538.83,0.0
52990.0,STARLINK-4286,PAYLOAD,2023-08-22 17:35:35,15.08856109,0.0001121,53.2178,318.8608,88.0925,272.0196,-1.7236e-05,-5.62e-06,0.0,0 STARLINK-4286,1 52990U 22076E   23234.73305091 -.00000562  00000-0 -17236-4 0  9992,2 52990  53.2178 318.8608 0001121  88.0925 272.0196 15.08856109 62787,6917.831,95.437,540.472,538.921,0.0
52990.0,STARLINK-4286,PAYLOAD,2023-08-23 12:40:13,15.08842831,0.0001355,53.2181,315.2936,78.7308,281.3836,9.4316e-05,1.214e-05,0.0,0 STARLINK-4286,1 52990U 22076E   23235.52793900  .00001214  00000-0  94316-4 0  9997,2 52990  53.2181 315.2936 0001355  78.7308 281.3836 15.08842831 62901,6917.872,95.437,540.674,538.799,0.0
52990.0,STARLINK-4286,PAYLOAD,2023-08-24 14:06:24,15.08841392,0.0001214,53.2179,310.5335,95.5877,264.5254,6.4723e-05,7.42e-06,0.0,0 STARLINK-4286,1 52990U 22076E   23236.58777975  .00000742  00000-0  64723-4 0  9992,2 52990  53.2179 310.5335 0001214  95.5877 264.5254 15.08841392 62594,6917.876,95.437,540.581,538.901,0.0
52990.0,STARLINK-4286,PAYLOAD,2023-08-25 12:21:48,15.08844411,0.0001238,53.2175,306.372,89.8958,270.2176,0.00014757,2.062e-05,0.0,0 STARLINK-4286,1 52990U 22076E   23237.51514129  .00002062  00000-0  14757-3 0  9994,2 52990  53.2175 306.3720 0001238  89.8958 270.2176 15.08844411 62731,6917.867,95.437,540.588,538.875,0.0
52990.0,STARLINK-4286,PAYLOAD,2023-08-25 13:57:11,15.08844859,0.0001308,53.2176,306.075,92.4615,267.6527,0.00022884,3.356e-05,0.0,0 STARLINK-4286,1 52990U 22076E   23237.58138123  .00003356  00000-0  22884-3 0  9994,2 52990  53.2176 306.0750 0001308  92.4615 267.6527 15.08844859 63210,6917.866,95.437,540.635,538.826,0.0
52990.0,STARLINK-4286,PAYLOAD,2023-08-26 10:37:12,15.08837616,0.0001329,53.2167,302.2094,74.5411,285.5727,0.00013598,1.877e-05,0.0,0 STARLINK-4286,1 52990U 22076E   23238.44250779  .00001877  00000-0  13598-3 0  9990,2 52990  53.2167 302.2094 0001329  74.5411 285.5727 15.08837616 63345,6917.888,95.438,540.672,538.833,0.0
52990.0,STARLINK-4286,PAYLOAD,2023-08-26 13:47:58,15.08843902,0.0001216,53.2167,301.6135,82.5642,277.5488,0.00017972,2.574e-05,0.0,0 STARLINK-4286,1 52990U 22076E   23238.57498438  .00002574  00000-0  17972-3 0  9995,2 52990  53.2167 301.6135 0001216  82.5642 277.5488 15.08843902 62893,6917.868,95.437,540.575,538.892,0.0
52990.0,STARLINK-4286,PAYLOAD,2023-08-27 08:52:36,15.08843647,0.0001381,53.2175,298.0458,95.2136,264.9013,0.00010966,1.458e-05,0.0,0 STARLINK-4286,1 52990U 22076E   23239.36986519  .00001458  00000-0  10966-3 0  9991,2 52990  53.2175 298.0458 0001381  95.2136 264.9013 15.08843647 63016,6917.869,95.437,540.69,538.779,0.0
52990.0,STARLINK-4286,PAYLOAD,2023-08-27 13:38:45,15.08847686,0.0001381,53.2172,297.1535,93.1803,266.9348,0.00019087,2.752e-05,0.0,0 STARLINK-4286,1 52990U 22076E   23239.56858303  .00002752  00000-0  19087-3 0  9993,2 52990  53.2172 297.1535 0001381  93.1803 266.9348 15.08847686 63512,6917.857,95.437,540.677,538.767,0.0
52990.0,STARLINK-4286,PAYLOAD,2023-08-28 10:18:46,15.08839682,0.0001427,53.2176,293.2887,92.5714,267.5441,8.6974e-05,1.097e-05,0.0,0 STARLINK-4286,1 52990U 22076E   23240.42970755  .00001097  00000-0  86974-4 0  9997,2 52990  53.2176 293.2887 0001427  92.5714 267.5441 15.08839682 63640,6917.881,95.438,540.734,538.759,0.0
52990.0,STARLINK-4286,PAYLOAD,2023-08-28 13:29:32,15.08843133,0.0001325,53.2173,292.6923,93.3067,266.8077,8.8071e-05,1.114e-05,0.0,0 STARLINK-4286,1 52990U 22076E   23240.56218458  .00001114  00000-0  88071-4 0  9997,2 52990  53.2173 292.6923 0001325  93.3067 266.8077 15.08843133 63191,6917.871,95.437,540.652,538.819,0.0
52990.0,STARLINK-4286,PAYLOAD,2023-08-29 13:20:19,15.08842133,0.0001308,53.2178,288.2336,94.3213,265.7929,7.0478e-05,8.34e-06,0.0,0 STARLINK-4286,1 52990U 22076E   23241.55578553  .00000834  00000-0  70478-4 0  9992,2 52990  53.2178 288.2336 0001308  94.3213 265.7929 15.08842133 63812,6917.874,95.437,540.644,538.834,0.0
52990.0,STARLINK-4286,PAYLOAD,2023-08-30 08:24:58,15.08835067,0.0001414,53.2178,284.665,90.9457,269.1698,3.2927e-05,2.36e-06,0.0,0 STARLINK-4286,1 52990U 22076E   23242.35067267  .00000236  00000-0  32927-4 0  9999,2 52990  53.2178 284.6650 0001414  90.9457 269.1698 15.08835067 63933,6917.895,95.438,540.739,538.782,0.0
52990.0,STARLINK-4286,PAYLOAD,2023-08-30 19:32:40,15.08836883,0.0001472,53.2174,282.5828,90.6504,269.4656,2.8039e-05,1.58e-06,0.0,0 STARLINK-4286,1 52990U 22076E   23242.81435333  .00000158  00000-0  28039-4 0  9995,2 52990  53.2174 282.5828 0001472  90.6504 269.4656 15.08836883 63537,6917.89,95.438,540.773,538.737,0.0
52990.0,STARLINK-4286,PAYLOAD,2023-08-31 11:26:31,15.08836626,0.0001582,53.2175,279.6102,79.1334,280.9836,7.2477e-05,8.66e-06,0.0,0 STARLINK-4286,1 52990U 22076E   23243.47675381  .00000866  00000-0  72477-4 0  9998,2 52990  53.2175 279.6102 0001582  79.1334 280.9836 15.08836626 64102,6917.891,95.438,540.85,538.661,0.0
52990.0,STARLINK-4286,PAYLOAD,2023-09-01 01:44:58,15.08844279,0.0001805,53.2177,276.9368,86.204,273.9159,0.00041762,6.365e-05,0.0,0 STARLINK-4286,1 52990U 22076E   23244.07290304  .00006365  00000-0  41762-3 0  9995,2 52990  53.2177 276.9368 0001805  86.2040 273.9159 15.08844279 64191,6917.867,95.437,540.981,538.484,0.0
52990.0,STARLINK-4286,PAYLOAD,2023-09-01 11:17:25,15.08768217,0.0002565,53.2174,275.1529,90.2245,269.9041,-0.0013906,-0.00022309,0.0,0 STARLINK-4286,1 52990U 22076E   23244.47043389 -.00022309  00000-0 -13906-2 0  9994,2 52990  53.2174 275.1529 0002565  90.2245 269.9041 15.08768217 64253,6918.1,95.442,541.739,538.19,0.0
52990.0,STARLINK-4286,PAYLOAD,2023-09-01 19:14:13,15.08833165,0.0001444,53.2169,273.6632,99.1068,261.0088,0.00049362,7.575e-05,0.0,0 STARLINK-4286,1 52990U 22076E   23244.80154820  .00007575  00000-0  49362-3 0  9996,2 52990  53.2169 273.6632 0001444  99.1068 261.0088 15.08833165 64306,6917.901,95.438,540.765,538.767,0.0
52990.0,STARLINK-4286,PAYLOAD,2023-09-02 11:08:05,15.08840725,0.0001791,53.2164,270.6862,103.6129,256.5063,0.00011515,1.545e-05,0.0,0 STARLINK-4286,1 52990U 22076E   23245.46394924  .00001545  00000-0  11515-3 0  9990,2 52990  53.2164 270.6862 0001791 103.6129 256.5063 15.08840725 63937,6917.878,95.438,540.982,538.504,0.0
52990.0,STARLINK-4286,PAYLOAD,2023-09-02 19:05:00,15.08844048,0.0001787,53.2164,269.1998,102.5343,257.5849,0.00014493,2.019e-05,0.0,0 STARLINK-4286,1 52990U 22076E   23245.79514681  .00002019  00000-0  14493-3 0  9995,2 52990  53.2164 269.1998 0001787 102.5343 257.5849 15.08844048 63981,6917.868,95.437,540.969,538.497,0.0
52990.0,STARLINK-4286,PAYLOAD,2023-09-03 01:26:33,15.08843379,0.0001645,53.2169,268.0108,92.716,267.402,8.3451e-05,1.04e-05,0.0,0 STARLINK-4286,1 52990U 22076E   23246.06010953  .00001040  00000-0  83451-4 0  9993,2 52990  53.2169 268.0108 0001645  92.7160 267.4020 15.08843379 64491,6917.87,95.437,540.873,538.597,0.0
52990.0,STARLINK-4286,PAYLOAD,2023-09-03 12:34:14,15.08848873,0.0001611,53.2161,265.929,96.583,263.5345,0.00016028,2.264e-05,0.0,0 STARLINK-4286,1 52990U 22076E   23246.52378339  .00002264  00000-0  16028-3 0  9993,2 52990  53.2161 265.9290 0001611  96.5830 263.5345 15.08848873 64097,6917.853,95.437,540.833,538.604,0.0
52990.0,STARLINK-4286,PAYLOAD,2023-09-03 18:55:48,15.08836188,0.0001427,53.2178,264.7391,97.6382,262.4773,-2.9993e-05,-7.65e-06,0.0,0 STARLINK-4286,1 52990U 22076E   23246.78875545 -.00000765  00000-0 -29993-4 0  9994,2 52990  53.2178 264.7391 0001427  97.6382 262.4773 15.08836188 64609,6917.892,95.438,540.744,538.77,0.0
52990.0,STARLINK-4286,PAYLOAD,2023-09-04 12:25:03,15.08835226,0.0001453,53.2168,261.4683,85.9061,274.2098,-6.4321e-07,-2.98e-06,0.0,0 STARLINK-4286,1 52990U 22076E   23247.51739884 -.00000298  00000-0 -64321-6 0  9998,2 52990  53.2168 261.4683 0001453  85.9061 274.2098 15.08835226 64242,6917.895,95.438,540.765,538.755,0.0
52990.0,STARLINK-4286,PAYLOAD,2023-09-05 01:08:08,15.08840054,0.0001388,53.2167,259.0894,86.0896,274.0255,6.7742e-05,7.9e-06,0.0,0 STARLINK-4286,1 52990U 22076E   23248.04731526  .00000790  00000-0  67742-4 0  9995,2 52990  53.2167 259.0894 0001388  86.0896 274.0255 15.08840054 64791,6917.88,95.438,540.705,538.785,0.0
52990.0,STARLINK-4286,PAYLOAD,2023-09-05 12:15:49,15.08845212,0.0001394,53.2165,257.0074,89.1334,270.9818,8.5694e-05,1.076e-05,0.0,0 STARLINK-4286,1 52990U 22076E   23248.51099146  .00001076  00000-0  85694-4 0  9996,2 52990  53.2165 257.0074 0001394  89.1334 270.9818 15.08845212 64392,6917.864,95.437,540.694,538.765,0.0
